ROBUSTA 1B              
1 42792U 17036AD  23106.61838963  .00068958  00000+0  13161-2 0  9996
2 42792  97.1531 147.8183 0003768 307.9440  52.1470 15.47896182323665

PLEIADES 1A             
1 38012U 11076F   23106.87373573  .00000671  00000+0  15427-3 0  9999
2 38012  98.2009 182.5114 0001499 101.0656 259.0704 14.58532195603300

STORK-1                 
1 51087U 22002DH  23106.81207457  .00030937  00000+0  12818-2 0  9996
2 51087  97.4521 174.8275 0012705 103.5421  34.0346 15.23775214 69402

PLEIADES 1B             
1 39019U 12068A   23106.77091874  .00000649  00000+0  14948-3 0  9991
2 39019  98.1962 182.4181 0001420  93.1781 266.9585 14.58548075552145

PLEIADES NEO 4          
1 49070U 21073E   23106.78040607  .00000057  00000+0  13832-4 0  9999
2 49070  97.8932 182.1508 0000881 102.4637 257.6648 14.81674208 89988

PLEIADES NEO 3          
1 48268U 21034A   23105.86873228 -.00000052  00000+0  30020-7 0  9992
2 48268  97.8936 181.2554 0001083 100.9095 259.2233 14.81672779106133